{"type": "FeatureCollection", "features": [{"type": "Feature", "properties": {"norad_id": 24876, "name": "GPS BIIR-2  (PRN 13)", "group": "gps-ops", "lat": 55.62013725692303, "lon": -155.66304809563283, "alt_km": 19971.92417176092, "timestamp": "2025-12-08T08:59:01.024261+00:00", "meta": {"OBJECT_NAME": "GPS BIIR-2  (PRN 13)", "OBJECT_ID": "1997-035A", "EPOCH": "2025-12-07T17:55:28.688448", "MEAN_MOTION": 2.00563551, "ECCENTRICITY": 0.00967233, "INCLINATION": 55.8929, "RA_OF_ASC_NODE": 106.0642, "ARG_OF_PERICENTER": 57.0121, "MEAN_ANOMALY": 303.8828, "EPHEMERIS_TYPE": 0, "CLASSIFICATION_TYPE": "U", "NORAD_CAT_ID": 24876, "ELEMENT_SET_NO": 999, "REV_AT_EPOCH": 20811, "BSTAR": 0, "MEAN_MOTION_DOT": 1.2e-07, "MEAN_MOTION_DDOT": 0}, "tle": {"line1": "1 24876U 97035A   25341.74685982  .00000012  00000+0  00000+0 0  9996", "line2": "2 24876  55.8929 106.0642 0096723  57.0121 303.8828  2.00563551208110"}}, "geometry": {"type": "Point", "coordinates": [-155.66304809563283, 55.62013725692303]}}, {"type": "Feature", "properties": {"norad_id": 26360, "name": "GPS BIIR-4  (PRN 20)", "group": "gps-ops", "lat": -4.470282458808229, "lon": -149.83486301658175, "alt_km": 20124.755664955257, "timestamp": "2025-12-08T08:59:01.024288+00:00", "meta": {"OBJECT_NAME": "GPS BIIR-4  (PRN 20)", "OBJECT_ID": "2000-025A", "EPOCH": "2025-12-07T20:28:59.861568", "MEAN_MOTION": 2.0056799, "ECCENTRICITY": 0.0038838, "INCLINATION": 55.0423, "RA_OF_ASC_NODE": 27.0356, "ARG_OF_PERICENTER": 241.5268, "MEAN_ANOMALY": 288.2176, "EPHEMERIS_TYPE": 0, "CLASSIFICATION_TYPE": "U", "NORAD_CAT_ID": 26360, "ELEMENT_SET_NO": 999, "REV_AT_EPOCH": 18743, "BSTAR": 0, "MEAN_MOTION_DOT": -8.5e-07, "MEAN_MOTION_DDOT": 0}, "tle": {"line1": "1 26360U 00025A   25341.85347062 -.00000085  00000+0  00000+0 0  9996", "line2": "2 26360  55.0423  27.0356 0038838 241.5268 288.2176  2.00567990187434"}}, "geometry": {"type": "Point", "coordinates": [-149.83486301658175, -4.470282458808229]}}, {"type": "Feature", "properties": {"norad_id": 26407, "name": "GPS BIIR-5  (PRN 22)", "group": "gps-ops", "lat": 21.624545011076556, "lon": -121.06718137852911, "alt_km": 20146.0053537812, "timestamp": "2025-12-08T08:59:01.024304+00:00", "meta": {"OBJECT_NAME": "GPS BIIR-5  (PRN 22)", "OBJECT_ID": "2000-040A", "EPOCH": "2025-12-07T20:23:29.531904", "MEAN_MOTION": 2.00567809, "ECCENTRICITY": 0.01262773, "INCLINATION": 54.892, "RA_OF_ASC_NODE": 222.7635, "ARG_OF_PERICENTER": 301.7172, "MEAN_ANOMALY": 64.8523, "EPHEMERIS_TYPE": 0, "CLASSIFICATION_TYPE": "U", "NORAD_CAT_ID": 26407, "ELEMENT_SET_NO": 999, "REV_AT_EPOCH": 18611, "BSTAR": 0, "MEAN_MOTION_DOT": 2.2e-07, "MEAN_MOTION_DDOT": 0}, "tle": {"line1": "1 26407U 00040A   25341.84964736  .00000022  00000+0  00000+0 0  9997", "line2": "2 26407  54.8920 222.7635 0126277 301.7172  64.8523  2.00567809186114"}}, "geometry": {"type": "Point", "coordinates": [-121.06718137852911, 21.624545011076556]}}, {"type": "Feature", "properties": {"norad_id": 27663, "name": "GPS BIIR-8  (PRN 16)", "group": "gps-ops", "lat": 14.004087079912454, "lon": 32.476251906135666, "alt_km": 20315.600669150517, "timestamp": "2025-12-08T08:59:01.024318+00:00", "meta": {"OBJECT_NAME": "GPS BIIR-8  (PRN 16)", "OBJECT_ID": "2003-005A", "EPOCH": "2025-12-07T16:01:06.566304", "MEAN_MOTION": 2.00571101, "ECCENTRICITY": 0.01472532, "INCLINATION": 54.9246, "RA_OF_ASC_NODE": 222.5801, "ARG_OF_PERICENTER": 51.7313, "MEAN_ANOMALY": 319.0971, "EPHEMERIS_TYPE": 0, "CLASSIFICATION_TYPE": "U", "NORAD_CAT_ID": 27663, "ELEMENT_SET_NO": 999, "REV_AT_EPOCH": 16747, "BSTAR": 0, "MEAN_MOTION_DOT": 2.5e-07, "MEAN_MOTION_DDOT": 0}, "tle": {"line1": "1 27663U 03005A   25341.66743711  .00000025  00000+0  00000+0 0  9997", "line2": "2 27663  54.9246 222.5801 0147253  51.7313 319.0971  2.00571101167470"}}, "geometry": {"type": "Point", "coordinates": [32.476251906135666, 14.004087079912454]}}, {"type": "Feature", "properties": {"norad_id": 28190, "name": "GPS BIIR-11 (PRN 19)", "group": "gps-ops", "lat": -31.245742386265036, "lon": -101.75526936861138, "alt_km": 20442.77556923603, "timestamp": "2025-12-08T08:59:01.024330+00:00", "meta": {"OBJECT_NAME": "GPS BIIR-11 (PRN 19)", "OBJECT_ID": "2004-009A", "EPOCH": "2025-12-07T01:08:17.943360", "MEAN_MOTION": 2.00560868, "ECCENTRICITY": 0.01082706, "INCLINATION": 54.9909, "RA_OF_ASC_NODE": 283.4484, "ARG_OF_PERICENTER": 167.5454, "MEAN_ANOMALY": 274.5396, "EPHEMERIS_TYPE": 0, "CLASSIFICATION_TYPE": "U", "NORAD_CAT_ID": 28190, "ELEMENT_SET_NO": 999, "REV_AT_EPOCH": 15909, "BSTAR": 0, "MEAN_MOTION_DOT": -4.1e-07, "MEAN_MOTION_DDOT": 0}, "tle": {"line1": "1 28190U 04009A   25341.04742990 -.00000041  00000+0  00000+0 0  9997", "line2": "2 28190  54.9909 283.4484 0108270 167.5454 274.5396  2.00560868159096"}}, "geometry": {"type": "Point", "coordinates": [-101.75526936861138, -31.245742386265036]}}, {"type": "Feature", "properties": {"norad_id": 28474, "name": "GPS BIIR-13 (PRN 02)", "group": "gps-ops", "lat": 17.92108076391702, "lon": -14.453978387059271, "alt_km": 20040.495638066757, "timestamp": "2025-12-08T08:59:01.024343+00:00", "meta": {"OBJECT_NAME": "GPS BIIR-13 (PRN 02)", "OBJECT_ID": "2004-045A", "EPOCH": "2025-12-07T20:16:35.351904", "MEAN_MOTION": 2.00569143, "ECCENTRICITY": 0.0170668, "INCLINATION": 55.2431, "RA_OF_ASC_NODE": 332.6027, "ARG_OF_PERICENTER": 309.0357, "MEAN_ANOMALY": 48.7901, "EPHEMERIS_TYPE": 0, "CLASSIFICATION_TYPE": "U", "NORAD_CAT_ID": 28474, "ELEMENT_SET_NO": 999, "REV_AT_EPOCH": 15458, "BSTAR": 0, "MEAN_MOTION_DOT": -8.2e-07, "MEAN_MOTION_DDOT": 0}, "tle": {"line1": "1 28474U 04045A   25341.84485361 -.00000082  00000+0  00000+0 0  9991", "line2": "2 28474  55.2431 332.6027 0170668 309.0357  48.7901  2.00569143154587"}}, "geometry": {"type": "Point", "coordinates": [-14.453978387059271, 17.92108076391702]}}, {"type": "Feature", "properties": {"norad_id": 28874, "name": "GPS BIIRM-1 (PRN 17)", "group": "gps-ops", "lat": -16.324081297418097, "lon": -90.94948781476083, "alt_km": 19939.745802750265, "timestamp": "2025-12-08T08:59:01.024355+00:00", "meta": {"OBJECT_NAME": "GPS BIIRM-1 (PRN 17)", "OBJECT_ID": "2005-038A", "EPOCH": "2025-12-07T21:56:50.807616", "MEAN_MOTION": 2.00578604, "ECCENTRICITY": 0.01317949, "INCLINATION": 55.0363, "RA_OF_ASC_NODE": 280.8951, "ARG_OF_PERICENTER": 293.3685, "MEAN_ANOMALY": 73.445, "EPHEMERIS_TYPE": 0, "CLASSIFICATION_TYPE": "U", "NORAD_CAT_ID": 28874, "ELEMENT_SET_NO": 999, "REV_AT_EPOCH": 14800, "BSTAR": 0, "MEAN_MOTION_DOT": -4.2e-07, "MEAN_MOTION_DDOT": 0}, "tle": {"line1": "1 28874U 05038A   25341.91447694 -.00000042  00000+0  00000+0 0  9999", "line2": "2 28874  55.0363 280.8951 0131794 293.3685  73.4450  2.00578604148005"}}, "geometry": {"type": "Point", "coordinates": [-90.94948781476083, -16.324081297418097]}}, {"type": "Feature", "properties": {"norad_id": 29486, "name": "GPS BIIRM-2 (PRN 31)", "group": "gps-ops", "lat": -46.17485524558919, "lon": 26.52401231210877, "alt_km": 20468.708534918936, "timestamp": "2025-12-08T08:59:01.024366+00:00", "meta": {"OBJECT_NAME": "GPS BIIRM-2 (PRN 31)", "OBJECT_ID": "2006-042A", "EPOCH": "2025-12-07T13:22:14.545056", "MEAN_MOTION": 2.0055427, "ECCENTRICITY": 0.01073634, "INCLINATION": 54.6934, "RA_OF_ASC_NODE": 158.9464, "ARG_OF_PERICENTER": 51.8351, "MEAN_ANOMALY": 320.4932, "EPHEMERIS_TYPE": 0, "CLASSIFICATION_TYPE": "U", "NORAD_CAT_ID": 29486, "ELEMENT_SET_NO": 999, "REV_AT_EPOCH": 14055, "BSTAR": 0, "MEAN_MOTION_DOT": 5.8e-07, "MEAN_MOTION_DDOT": 0}, "tle": {"line1": "1 29486U 06042A   25341.55711279  .00000058  00000+0  00000+0 0  9994", "line2": "2 29486  54.6934 158.9464 0107363  51.8351 320.4932  2.00554270140555"}}, "geometry": {"type": "Point", "coordinates": [26.52401231210877, -46.17485524558919]}}, {"type": "Feature", "properties": {"norad_id": 29601, "name": "GPS BIIRM-3 (PRN 12)", "group": "gps-ops", "lat": -45.67129486123378, "lon": 175.72972331624734, "alt_km": 20383.726343783415, "timestamp": "2025-12-08T08:59:01.024378+00:00", "meta": {"OBJECT_NAME": "GPS BIIRM-3 (PRN 12)", "OBJECT_ID": "2006-052A", "EPOCH": "2025-12-06T23:07:38.134848", "MEAN_MOTION": 2.0057305, "ECCENTRICITY": 0.00876251, "INCLINATION": 54.9717, "RA_OF_ASC_NODE": 221.6275, "ARG_OF_PERICENTER": 87.379, "MEAN_ANOMALY": 273.714, "EPHEMERIS_TYPE": 0, "CLASSIFICATION_TYPE": "U", "NORAD_CAT_ID": 29601, "ELEMENT_SET_NO": 999, "REV_AT_EPOCH": 13955, "BSTAR": 0, "MEAN_MOTION_DOT": 3.6e-07, "MEAN_MOTION_DDOT": 0}, "tle": {"line1": "1 29601U 06052A   25340.96363582  .00000036  00000+0  00000+0 0  9994", "line2": "2 29601  54.9717 221.6275 0087625  87.3790 273.7140  2.00573050139559"}}, "geometry": {"type": "Point", "coordinates": [175.72972331624734, -45.67129486123378]}}, {"type": "Feature", "properties": {"norad_id": 32260, "name": "GPS BIIRM-4 (PRN 15)", "group": "gps-ops", "lat": 52.71502088059543, "lon": 160.74095115743978, "alt_km": 19742.019122044974, "timestamp": "2025-12-08T08:59:01.024390+00:00", "meta": {"OBJECT_NAME": "GPS BIIRM-4 (PRN 15)", "OBJECT_ID": "2007-047A", "EPOCH": "2025-12-07T06:27:37.313568", "MEAN_MOTION": 2.00564639, "ECCENTRICITY": 0.01643207, "INCLINATION": 53.9516, "RA_OF_ASC_NODE": 87.9845, "ARG_OF_PERICENTER": 85.1852, "MEAN_ANOMALY": 276.674, "EPHEMERIS_TYPE": 0, "CLASSIFICATION_TYPE": "U", "NORAD_CAT_ID": 32260, "ELEMENT_SET_NO": 999, "REV_AT_EPOCH": 13296, "BSTAR": 0, "MEAN_MOTION_DOT": -2e-07, "MEAN_MOTION_DDOT": 0}, "tle": {"line1": "1 32260U 07047A   25341.26918187 -.00000020  00000+0  00000+0 0  9999", "line2": "2 32260  53.9516  87.9845 0164320  85.1852 276.6740  2.00564639132968"}}, "geometry": {"type": "Point", "coordinates": [160.74095115743978, 52.71502088059543]}}]}